ORBCOMM-X               
1 21576U 91050C   24144.17684573  .00000844  00000+0  26777-3 0  9999
2 21576  98.3903 211.8027 0002430 290.9083  69.1847 14.42521486726092
ORBCOMM FM01            
1 23545U 95017A   24143.87041159  .00008224  00000+0  10876-2 0  9999
2 23545  69.9673 320.0981 0007554 214.3787 145.6874 14.80250764554902
ORBCOMM FM02            
1 23546U 95017B   24143.97022496  .00008756  00000+0  11672-2 0  9999
2 23546  69.9697 339.2997 0009264 204.6423 155.4285 14.79878042554512
ORBCOMM FM08            
1 25112U 97084A   24143.86198111  .00003811  00000+0  11773-2 0  9991
2 25112  45.0142  77.1174 0007054  68.6201 291.5401 14.42660823384941
ORBCOMM FM10            
1 25113U 97084B   24143.17713262  .00003076  00000+0  96071-3 0  9994
2 25113  45.0155  82.2521 0005430  31.3575 328.7598 14.42555995559998
ORBCOMM FM11            
1 25114U 97084C   24143.19682740  .00003274  00000+0  10224-2 0  9998
2 25114  45.0139  82.2366 0006207  33.3266 326.7974 14.42429941384993
ORBCOMM FM12            
1 25115U 97084D   24143.91883978  .00003094  00000+0  96905-3 0  9996
2 25115  45.0146  78.4901 0005303  36.2621 323.8587 14.42404448385104
ORBCOMM FM09            
1 25116U 97084E   24144.20749742  .00003229  00000+0  10101-2 0  9993
2 25116  45.0153  77.8024 0006417  25.5825 334.5342 14.42369672385147
